{
  "type": "FeatureCollection",
  "format": "malbut-user-map-v1",
  "map_id": "map-a0843f4df527",
  "map_revision": "rev-5e8bdb2b88ea",
  "legacy_map_ids": [
    "map-5e8bdb2b88ea"
  ],
  "frame_id": "map",
  "generated_at": "2026-08-17T09:34:52.889214+00:00",
  "source": {
    "type": "slam_occupancy_grid",
    "map_yaml": "small_house.yaml",
    "map_image": "small_house.pgm",
    "resolution": 0.05,
    "mode": "trinary",
    "occupied_thresh": 0.65,
    "free_thresh": 0.196,
    "width": 500,
    "height": 500
  },
  "room_segmentation": {
    "method": "single_initial_room",
    "room_count": 1,
    "edited": true
  },
  "features": [
    {
      "type": "Feature",
      "id": "walkable-area",
      "properties": {
        "role": "walkable_area",
        "name": "우리 집"
      },
      "geometry": {
        "type": "Polygon",
        "coordinates": [
          [
            [
              9.4225,
              3.2263
            ],
            [
              4.925,
              3.1738
            ],
            [
              9.325,
              3.0753
            ],
            [
              8.175,
              3.051
            ],
            [
              4.7747,
              3.049
            ],
            [
              4.7753,
              1.975
            ],
            [
              4.626,
              1.925
            ],
            [
              4.624,
              5.452
            ],
            [
              -2.2507,
              5.4481
            ],
            [
              -2.2493,
              3.125
            ],
            [
              -2.4007,
              3.075
            ],
            [
              -2.3993,
              0.525
            ],
            [
              -2.5748,
              0.575
            ],
            [
              -2.5752,
              1.225
            ],
            [
              -2.7245,
              1.275
            ],
            [
              -2.7255,
              3.0754
            ],
            [
              -4.0001,
              3.0746
            ],
            [
              -3.9999,
              2.5752
            ],
            [
              -4.7999,
              2.5748
            ],
            [
              -4.8001,
              3.0757
            ],
            [
              -7.3501,
              3.0743
            ],
            [
              -7.3499,
              2.5752
            ],
            [
              -8.0999,
              2.5748
            ],
            [
              -8.1001,
              3.0753
            ],
            [
              -9.175,
              3.0747
            ],
            [
              -9.2755,
              3.025
            ],
            [
              -9.2745,
              1.425
            ],
            [
              -9.1252,
              1.375
            ],
            [
              -9.1248,
              0.825
            ],
            [
              -9.2753,
              0.775
            ],
            [
              -9.2747,
              -0.325
            ],
            [
              -9.1252,
              -0.375
            ],
            [
              -9.1248,
              -0.975
            ],
            [
              -9.2763,
              -1.025
            ],
            [
              -9.2737,
              -5.4769
            ],
            [
              -2.7245,
              -5.4731
            ],
            [
              -2.7255,
              -3.725
            ],
            [
              -2.5497,
              -3.625
            ],
            [
              -2.5503,
              -2.725
            ],
            [
              -2.4008,
              -2.775
            ],
            [
              -2.3992,
              -5.4752
            ],
            [
              -1.575,
              -5.4748
            ],
            [
              -1.525,
              -5.4253
            ],
            [
              -0.3999,
              -5.4247
            ],
            [
              -0.4002,
              -4.8507
            ],
            [
              1.925,
              -4.8493
            ],
            [
              2.0748,
              -4.875
            ],
            [
              2.0752,
              -5.4758
            ],
            [
              4.8003,
              -5.4742
            ],
            [
              4.7997,
              -4.325
            ],
            [
              4.9747,
              -4.375
            ],
            [
              4.9753,
              -5.4755
            ],
            [
              6.7002,
              -5.4745
            ],
            [
              6.6998,
              -4.7756
            ],
            [
              8.6257,
              -4.7745
            ],
            [
              8.6243,
              -2.2002
            ],
            [
              9.3015,
              -2.1998
            ],
            [
              9.3475,
              3.125
            ],
            [
              9.3525,
              -5.5492
            ],
            [
              6.575,
              -5.5508
            ],
            [
              6.575,
              -5.6758
            ],
            [
              9.4275,
              -5.6742
            ],
            [
              9.4225,
              3.2263
            ]
          ],
          [
            [
              2.775,
              -5.3502
            ],
            [
              3.325,
              -5.3498
            ],
            [
              3.375,
              -5.4498
            ],
            [
              2.825,
              -5.4502
            ],
            [
              2.775,
              -5.3502
            ]
          ],
          [
            [
              3.7999,
              -4.975
            ],
            [
              3.8999,
              -5.025
            ],
            [
              3.9001,
              -5.375
            ],
            [
              3.8001,
              -5.325
            ],
            [
              3.7999,
              -4.975
            ]
          ],
          [
            [
              -2.3001,
              -5.0002
            ],
            [
              -1.7001,
              -4.9998
            ],
            [
              -1.6999,
              -5.4498
            ],
            [
              -2.2999,
              -5.4502
            ],
            [
              -2.3001,
              -5.0002
            ]
          ],
          [
            [
              -8.275,
              -4.125
            ],
            [
              -7.875,
              -4.425
            ],
            [
              -7.975,
              -4.575
            ],
            [
              -8.375,
              -4.275
            ],
            [
              -8.275,
              -4.125
            ]
          ],
          [
            [
              -7.175,
              -3.9001
            ],
            [
              -6.775,
              -3.8999
            ],
            [
              -6.6001,
              -4.025
            ],
            [
              -6.5999,
              -4.325
            ],
            [
              -6.725,
              -4.5499
            ],
            [
              -7.075,
              -4.5501
            ],
            [
              -7.225,
              -4.475
            ],
            [
              -7.325,
              -4.175
            ],
            [
              -7.175,
              -3.9001
            ]
          ],
          [
            [
              -8.425,
              -1.4013
            ],
            [
              -3.875,
              -1.3987
            ],
            [
              -3.825,
              -1.6244
            ],
            [
              -5.925,
              -1.6493
            ],
            [
              -8.375,
              -1.6507
            ],
            [
              -8.425,
              -1.4013
            ]
          ],
          [
            [
              0.825,
              -1.4502
            ],
            [
              0.975,
              -1.3252
            ],
            [
              1.5499,
              -1.3248
            ],
            [
              1.5501,
              -1.6752
            ],
            [
              2.0751,
              -1.6749
            ],
            [
              2.0749,
              -1.375
            ],
            [
              2.1749,
              -1.325
            ],
            [
              2.1751,
              -1.7998
            ],
            [
              1.575,
              -1.8002
            ],
            [
              1.625,
              -1.9752
            ],
            [
              2.175,
              -1.9748
            ],
            [
              2.225,
              -2.0996
            ],
            [
              0.8501,
              -2.1004
            ],
            [
              0.8499,
              -1.7002
            ],
            [
              1.4251,
              -1.6998
            ],
            [
              1.4249,
              -1.4498
            ],
            [
              0.825,
              -1.4502
            ]
          ],
          [
            [
              -0.8001,
              -0.7501
            ],
            [
              -0.325,
              -0.7499
            ],
            [
              0.1246,
              -0.825
            ],
            [
              0.1254,
              -2.1504
            ],
            [
              1.4749,
              -2.1496
            ],
            [
              1.4751,
              -2.525
            ],
            [
              1.575,
              -2.625
            ],
            [
              1.4499,
              -2.675
            ],
            [
              1.4501,
              -3.0749
            ],
            [
              1.175,
              -3.0751
            ],
            [
              1.125,
              -3.175
            ],
            [
              1.025,
              -3.0748
            ],
            [
              0.475,
              -3.0752
            ],
            [
              0.425,
              -3.175
            ],
            [
              0.325,
              -3.0749
            ],
            [
              0.075,
              -3.0751
            ],
            [
              0.025,
              -3.175
            ],
            [
              -0.075,
              -3.0749
            ],
            [
              -0.575,
              -3.0751
            ],
            [
              -0.625,
              -3.175
            ],
            [
              -0.7999,
              -3.125
            ],
            [
              -0.8001,
              -2.675
            ],
            [
              -0.925,
              -2.625
            ],
            [
              -0.8248,
              -2.525
            ],
            [
              -0.8252,
              -1.925
            ],
            [
              -0.925,
              -1.875
            ],
            [
              -0.8248,
              -1.775
            ],
            [
              -0.8252,
              -1.225
            ],
            [
              -0.925,
              -1.125
            ],
            [
              -0.7999,
              -1.075
            ],
            [
              -0.8001,
              -0.7501
            ]
          ],
          [
            [
              2.275,
              -0.6501
            ],
            [
              2.4999,
              -0.6499
            ],
            [
              2.5001,
              -0.9749
            ],
            [
              2.275,
              -0.9751
            ],
            [
              2.175,
              -0.875
            ],
            [
              2.175,
              -0.725
            ],
            [
              2.275,
              -0.6501
            ]
          ],
          [
            [
              8.3497,
              -0.5002
            ],
            [
              9.1497,
              -0.4998
            ],
            [
              9.1503,
              -1.5998
            ],
            [
              8.3503,
              -1.6002
            ],
            [
              8.3497,
              -0.5002
            ]
          ],
          [
            [
              -8.8751,
              1.1499
            ],
            [
              -8.625,
              1.1501
            ],
            [
              -8.525,
              1.075
            ],
            [
              -8.525,
              0.925
            ],
            [
              -8.625,
              0.825
            ],
            [
              -8.775,
              0.825
            ],
            [
              -8.8749,
              0.925
            ],
            [
              -8.8751,
              1.1499
            ]
          ],
          [
            [
              7.1499,
              1.225
            ],
            [
              7.2999,
              1.175
            ],
            [
              7.3001,
              0.675
            ],
            [
              7.1501,
              0.725
            ],
            [
              7.1499,
              1.225
            ]
          ],
          [
            [
              5.7749,
              1.225
            ],
            [
              5.9499,
              1.175
            ],
            [
              5.9501,
              0.675
            ],
            [
              5.7751,
              0.725
            ],
            [
              5.7749,
              1.225
            ]
          ],
          [
            [
              6.725,
              1.875
            ],
            [
              6.825,
              1.925
            ],
            [
              6.875,
              1.775
            ],
            [
              6.775,
              1.725
            ],
            [
              6.725,
              1.875
            ]
          ],
          [
            [
              2.275,
              2.1999
            ],
            [
              2.725,
              2.2001
            ],
            [
              2.775,
              2.0501
            ],
            [
              2.325,
              2.0499
            ],
            [
              2.275,
              2.1999
            ]
          ],
          [
            [
              -3.4503,
              2.9998
            ],
            [
              -2.8003,
              3.0002
            ],
            [
              -2.7997,
              1.9502
            ],
            [
              -3.4497,
              1.9498
            ],
            [
              -3.4503,
              2.9998
            ]
          ],
          [
            [
              -7.125,
              3.0495
            ],
            [
              -5.275,
              3.0505
            ],
            [
              -5.225,
              2.925
            ],
            [
              -5.0755,
              2.875
            ],
            [
              -5.0745,
              1.075
            ],
            [
              -5.275,
              1.0005
            ],
            [
              -7.1995,
              0.9994
            ],
            [
              -7.2005,
              2.875
            ],
            [
              -7.125,
              2.925
            ],
            [
              -7.125,
              3.0495
            ]
          ],
          [
            [
              2.975,
              3.225
            ],
            [
              3.075,
              3.275
            ],
            [
              3.125,
              3.125
            ],
            [
              3.025,
              3.075
            ],
            [
              2.975,
              3.225
            ]
          ],
          [
            [
              2.275,
              3.3999
            ],
            [
              2.725,
              3.4001
            ],
            [
              2.775,
              3.2501
            ],
            [
              2.325,
              3.2499
            ],
            [
              2.275,
              3.3999
            ]
          ],
          [
            [
              3.625,
              3.7499
            ],
            [
              4.075,
              3.7501
            ],
            [
              4.025,
              3.5751
            ],
            [
              3.8248,
              3.5749
            ],
            [
              3.8252,
              2.7749
            ],
            [
              4.0249,
              2.7751
            ],
            [
              4.025,
              2.6001
            ],
            [
              3.575,
              2.5999
            ],
            [
              3.575,
              2.725
            ],
            [
              3.6752,
              2.775
            ],
            [
              3.6748,
              3.575
            ],
            [
              3.575,
              3.625
            ],
            [
              3.625,
              3.7499
            ]
          ],
          [
            [
              0.0499,
              4.375
            ],
            [
              0.1999,
              4.325
            ],
            [
              0.2001,
              3.825
            ],
            [
              0.0501,
              3.875
            ],
            [
              0.0499,
              4.375
            ]
          ],
          [
            [
              -1.2501,
              4.375
            ],
            [
              -1.1001,
              4.325
            ],
            [
              -1.0999,
              3.825
            ],
            [
              -1.2499,
              3.875
            ],
            [
              -1.2501,
              4.375
            ]
          ],
          [
            [
              3.075,
              4.5499
            ],
            [
              3.425,
              4.5501
            ],
            [
              3.6499,
              4.425
            ],
            [
              3.6501,
              4.175
            ],
            [
              3.525,
              3.9001
            ],
            [
              3.175,
              3.8999
            ],
            [
              2.9501,
              4.025
            ],
            [
              2.9499,
              4.325
            ],
            [
              3.075,
              4.5499
            ]
          ]
        ]
      }
    },
    {
      "type": "Feature",
      "id": "wall-outline",
      "properties": {
        "role": "wall_outline"
      },
      "geometry": {
        "type": "MultiLineString",
        "coordinates": [
          [
            [
              9.4225,
              3.2263
            ],
            [
              4.925,
              3.1738
            ],
            [
              9.325,
              3.0753
            ],
            [
              8.175,
              3.051
            ],
            [
              4.7747,
              3.049
            ],
            [
              4.7753,
              1.975
            ],
            [
              4.626,
              1.925
            ],
            [
              4.624,
              5.452
            ],
            [
              -2.2507,
              5.4481
            ],
            [
              -2.2493,
              3.125
            ],
            [
              -2.4007,
              3.075
            ],
            [
              -2.3993,
              0.525
            ],
            [
              -2.5748,
              0.575
            ],
            [
              -2.5752,
              1.225
            ],
            [
              -2.7245,
              1.275
            ],
            [
              -2.7255,
              3.0754
            ],
            [
              -4.0001,
              3.0746
            ],
            [
              -3.9999,
              2.5752
            ],
            [
              -4.7999,
              2.5748
            ],
            [
              -4.8001,
              3.0757
            ],
            [
              -7.3501,
              3.0743
            ],
            [
              -7.3499,
              2.5752
            ],
            [
              -8.0999,
              2.5748
            ],
            [
              -8.1001,
              3.0753
            ],
            [
              -9.175,
              3.0747
            ],
            [
              -9.2755,
              3.025
            ],
            [
              -9.2745,
              1.425
            ],
            [
              -9.1252,
              1.375
            ],
            [
              -9.1248,
              0.825
            ],
            [
              -9.2753,
              0.775
            ],
            [
              -9.2747,
              -0.325
            ],
            [
              -9.1252,
              -0.375
            ],
            [
              -9.1248,
              -0.975
            ],
            [
              -9.2763,
              -1.025
            ],
            [
              -9.2737,
              -5.4769
            ],
            [
              -2.7245,
              -5.4731
            ],
            [
              -2.7255,
              -3.725
            ],
            [
              -2.5497,
              -3.625
            ],
            [
              -2.5503,
              -2.725
            ],
            [
              -2.4008,
              -2.775
            ],
            [
              -2.3992,
              -5.4752
            ],
            [
              -1.575,
              -5.4748
            ],
            [
              -1.525,
              -5.4253
            ],
            [
              -0.3999,
              -5.4247
            ],
            [
              -0.4002,
              -4.8507
            ],
            [
              1.925,
              -4.8493
            ],
            [
              2.0748,
              -4.875
            ],
            [
              2.0752,
              -5.4758
            ],
            [
              4.8003,
              -5.4742
            ],
            [
              4.7997,
              -4.325
            ],
            [
              4.9747,
              -4.375
            ],
            [
              4.9753,
              -5.4755
            ],
            [
              6.7002,
              -5.4745
            ],
            [
              6.6998,
              -4.7756
            ],
            [
              8.6257,
              -4.7745
            ],
            [
              8.6243,
              -2.2002
            ],
            [
              9.3015,
              -2.1998
            ],
            [
              9.3475,
              3.125
            ],
            [
              9.3525,
              -5.5492
            ],
            [
              6.575,
              -5.5508
            ],
            [
              6.575,
              -5.6758
            ],
            [
              9.4275,
              -5.6742
            ],
            [
              9.4225,
              3.2263
            ]
          ],
          [
            [
              2.775,
              -5.3502
            ],
            [
              3.325,
              -5.3498
            ],
            [
              3.375,
              -5.4498
            ],
            [
              2.825,
              -5.4502
            ],
            [
              2.775,
              -5.3502
            ]
          ],
          [
            [
              3.7999,
              -4.975
            ],
            [
              3.8999,
              -5.025
            ],
            [
              3.9001,
              -5.375
            ],
            [
              3.8001,
              -5.325
            ],
            [
              3.7999,
              -4.975
            ]
          ],
          [
            [
              -2.3001,
              -5.0002
            ],
            [
              -1.7001,
              -4.9998
            ],
            [
              -1.6999,
              -5.4498
            ],
            [
              -2.2999,
              -5.4502
            ],
            [
              -2.3001,
              -5.0002
            ]
          ],
          [
            [
              -8.275,
              -4.125
            ],
            [
              -7.875,
              -4.425
            ],
            [
              -7.975,
              -4.575
            ],
            [
              -8.375,
              -4.275
            ],
            [
              -8.275,
              -4.125
            ]
          ],
          [
            [
              -7.175,
              -3.9001
            ],
            [
              -6.775,
              -3.8999
            ],
            [
              -6.6001,
              -4.025
            ],
            [
              -6.5999,
              -4.325
            ],
            [
              -6.725,
              -4.5499
            ],
            [
              -7.075,
              -4.5501
            ],
            [
              -7.225,
              -4.475
            ],
            [
              -7.325,
              -4.175
            ],
            [
              -7.175,
              -3.9001
            ]
          ],
          [
            [
              -8.425,
              -1.4013
            ],
            [
              -3.875,
              -1.3987
            ],
            [
              -3.825,
              -1.6244
            ],
            [
              -5.925,
              -1.6493
            ],
            [
              -8.375,
              -1.6507
            ],
            [
              -8.425,
              -1.4013
            ]
          ],
          [
            [
              0.825,
              -1.4502
            ],
            [
              0.975,
              -1.3252
            ],
            [
              1.5499,
              -1.3248
            ],
            [
              1.5501,
              -1.6752
            ],
            [
              2.0751,
              -1.6749
            ],
            [
              2.0749,
              -1.375
            ],
            [
              2.1749,
              -1.325
            ],
            [
              2.1751,
              -1.7998
            ],
            [
              1.575,
              -1.8002
            ],
            [
              1.625,
              -1.9752
            ],
            [
              2.175,
              -1.9748
            ],
            [
              2.225,
              -2.0996
            ],
            [
              0.8501,
              -2.1004
            ],
            [
              0.8499,
              -1.7002
            ],
            [
              1.4251,
              -1.6998
            ],
            [
              1.4249,
              -1.4498
            ],
            [
              0.825,
              -1.4502
            ]
          ],
          [
            [
              -0.8001,
              -0.7501
            ],
            [
              -0.325,
              -0.7499
            ],
            [
              0.1246,
              -0.825
            ],
            [
              0.1254,
              -2.1504
            ],
            [
              1.4749,
              -2.1496
            ],
            [
              1.4751,
              -2.525
            ],
            [
              1.575,
              -2.625
            ],
            [
              1.4499,
              -2.675
            ],
            [
              1.4501,
              -3.0749
            ],
            [
              1.175,
              -3.0751
            ],
            [
              1.125,
              -3.175
            ],
            [
              1.025,
              -3.0748
            ],
            [
              0.475,
              -3.0752
            ],
            [
              0.425,
              -3.175
            ],
            [
              0.325,
              -3.0749
            ],
            [
              0.075,
              -3.0751
            ],
            [
              0.025,
              -3.175
            ],
            [
              -0.075,
              -3.0749
            ],
            [
              -0.575,
              -3.0751
            ],
            [
              -0.625,
              -3.175
            ],
            [
              -0.7999,
              -3.125
            ],
            [
              -0.8001,
              -2.675
            ],
            [
              -0.925,
              -2.625
            ],
            [
              -0.8248,
              -2.525
            ],
            [
              -0.8252,
              -1.925
            ],
            [
              -0.925,
              -1.875
            ],
            [
              -0.8248,
              -1.775
            ],
            [
              -0.8252,
              -1.225
            ],
            [
              -0.925,
              -1.125
            ],
            [
              -0.7999,
              -1.075
            ],
            [
              -0.8001,
              -0.7501
            ]
          ],
          [
            [
              2.275,
              -0.6501
            ],
            [
              2.4999,
              -0.6499
            ],
            [
              2.5001,
              -0.9749
            ],
            [
              2.275,
              -0.9751
            ],
            [
              2.175,
              -0.875
            ],
            [
              2.175,
              -0.725
            ],
            [
              2.275,
              -0.6501
            ]
          ],
          [
            [
              8.3497,
              -0.5002
            ],
            [
              9.1497,
              -0.4998
            ],
            [
              9.1503,
              -1.5998
            ],
            [
              8.3503,
              -1.6002
            ],
            [
              8.3497,
              -0.5002
            ]
          ],
          [
            [
              -8.8751,
              1.1499
            ],
            [
              -8.625,
              1.1501
            ],
            [
              -8.525,
              1.075
            ],
            [
              -8.525,
              0.925
            ],
            [
              -8.625,
              0.825
            ],
            [
              -8.775,
              0.825
            ],
            [
              -8.8749,
              0.925
            ],
            [
              -8.8751,
              1.1499
            ]
          ],
          [
            [
              7.1499,
              1.225
            ],
            [
              7.2999,
              1.175
            ],
            [
              7.3001,
              0.675
            ],
            [
              7.1501,
              0.725
            ],
            [
              7.1499,
              1.225
            ]
          ],
          [
            [
              5.7749,
              1.225
            ],
            [
              5.9499,
              1.175
            ],
            [
              5.9501,
              0.675
            ],
            [
              5.7751,
              0.725
            ],
            [
              5.7749,
              1.225
            ]
          ],
          [
            [
              6.725,
              1.875
            ],
            [
              6.825,
              1.925
            ],
            [
              6.875,
              1.775
            ],
            [
              6.775,
              1.725
            ],
            [
              6.725,
              1.875
            ]
          ],
          [
            [
              2.275,
              2.1999
            ],
            [
              2.725,
              2.2001
            ],
            [
              2.775,
              2.0501
            ],
            [
              2.325,
              2.0499
            ],
            [
              2.275,
              2.1999
            ]
          ],
          [
            [
              -3.4503,
              2.9998
            ],
            [
              -2.8003,
              3.0002
            ],
            [
              -2.7997,
              1.9502
            ],
            [
              -3.4497,
              1.9498
            ],
            [
              -3.4503,
              2.9998
            ]
          ],
          [
            [
              -7.125,
              3.0495
            ],
            [
              -5.275,
              3.0505
            ],
            [
              -5.225,
              2.925
            ],
            [
              -5.0755,
              2.875
            ],
            [
              -5.0745,
              1.075
            ],
            [
              -5.275,
              1.0005
            ],
            [
              -7.1995,
              0.9994
            ],
            [
              -7.2005,
              2.875
            ],
            [
              -7.125,
              2.925
            ],
            [
              -7.125,
              3.0495
            ]
          ],
          [
            [
              2.975,
              3.225
            ],
            [
              3.075,
              3.275
            ],
            [
              3.125,
              3.125
            ],
            [
              3.025,
              3.075
            ],
            [
              2.975,
              3.225
            ]
          ],
          [
            [
              2.275,
              3.3999
            ],
            [
              2.725,
              3.4001
            ],
            [
              2.775,
              3.2501
            ],
            [
              2.325,
              3.2499
            ],
            [
              2.275,
              3.3999
            ]
          ],
          [
            [
              3.625,
              3.7499
            ],
            [
              4.075,
              3.7501
            ],
            [
              4.025,
              3.5751
            ],
            [
              3.8248,
              3.5749
            ],
            [
              3.8252,
              2.7749
            ],
            [
              4.0249,
              2.7751
            ],
            [
              4.025,
              2.6001
            ],
            [
              3.575,
              2.5999
            ],
            [
              3.575,
              2.725
            ],
            [
              3.6752,
              2.775
            ],
            [
              3.6748,
              3.575
            ],
            [
              3.575,
              3.625
            ],
            [
              3.625,
              3.7499
            ]
          ],
          [
            [
              0.0499,
              4.375
            ],
            [
              0.1999,
              4.325
            ],
            [
              0.2001,
              3.825
            ],
            [
              0.0501,
              3.875
            ],
            [
              0.0499,
              4.375
            ]
          ],
          [
            [
              -1.2501,
              4.375
            ],
            [
              -1.1001,
              4.325
            ],
            [
              -1.0999,
              3.825
            ],
            [
              -1.2499,
              3.875
            ],
            [
              -1.2501,
              4.375
            ]
          ],
          [
            [
              3.075,
              4.5499
            ],
            [
              3.425,
              4.5501
            ],
            [
              3.6499,
              4.425
            ],
            [
              3.6501,
              4.175
            ],
            [
              3.525,
              3.9001
            ],
            [
              3.175,
              3.8999
            ],
            [
              2.9501,
              4.025
            ],
            [
              2.9499,
              4.325
            ],
            [
              3.075,
              4.5499
            ]
          ]
        ]
      }
    },
    {
      "type": "Feature",
      "id": "room-1",
      "properties": {
        "role": "room",
        "room_id": "room-1",
        "name": "공간 1",
        "category": "unassigned",
        "color": "#dce8ff",
        "area_m2": 155.34,
        "centroid": [
          4.675,
          -1.975
        ],
        "representative_point": [
          5.35,
          -1.8
        ],
        "clearance_m": 2.648,
        "generated": true
      },
      "geometry": {
        "type": "Polygon",
        "coordinates": [
          [
            [
              9.4225,
              3.2263
            ],
            [
              4.925,
              3.1738
            ],
            [
              9.325,
              3.0753
            ],
            [
              8.175,
              3.051
            ],
            [
              4.7747,
              3.049
            ],
            [
              4.7753,
              1.975
            ],
            [
              4.626,
              1.925
            ],
            [
              4.624,
              5.452
            ],
            [
              -2.2507,
              5.4481
            ],
            [
              -2.2493,
              3.125
            ],
            [
              -2.4007,
              3.075
            ],
            [
              -2.3993,
              0.525
            ],
            [
              -2.5748,
              0.575
            ],
            [
              -2.5752,
              1.225
            ],
            [
              -2.7245,
              1.275
            ],
            [
              -2.7255,
              3.0754
            ],
            [
              -4.0001,
              3.0746
            ],
            [
              -3.9999,
              2.5752
            ],
            [
              -4.7999,
              2.5748
            ],
            [
              -4.8001,
              3.0757
            ],
            [
              -7.3501,
              3.0743
            ],
            [
              -7.3499,
              2.5752
            ],
            [
              -8.0999,
              2.5748
            ],
            [
              -8.1001,
              3.0753
            ],
            [
              -9.175,
              3.0747
            ],
            [
              -9.2755,
              3.025
            ],
            [
              -9.2745,
              1.425
            ],
            [
              -9.1252,
              1.375
            ],
            [
              -9.1248,
              0.825
            ],
            [
              -9.2753,
              0.775
            ],
            [
              -9.2747,
              -0.325
            ],
            [
              -9.1252,
              -0.375
            ],
            [
              -9.1248,
              -0.975
            ],
            [
              -9.2763,
              -1.025
            ],
            [
              -9.2737,
              -5.4769
            ],
            [
              -2.7245,
              -5.4731
            ],
            [
              -2.7255,
              -3.725
            ],
            [
              -2.5497,
              -3.625
            ],
            [
              -2.5503,
              -2.725
            ],
            [
              -2.4008,
              -2.775
            ],
            [
              -2.3992,
              -5.4752
            ],
            [
              -1.575,
              -5.4748
            ],
            [
              -1.525,
              -5.4253
            ],
            [
              -0.3999,
              -5.4247
            ],
            [
              -0.4002,
              -4.8507
            ],
            [
              1.925,
              -4.8493
            ],
            [
              2.0748,
              -4.875
            ],
            [
              2.0752,
              -5.4758
            ],
            [
              4.8003,
              -5.4742
            ],
            [
              4.7997,
              -4.325
            ],
            [
              4.9747,
              -4.375
            ],
            [
              4.9753,
              -5.4755
            ],
            [
              6.7002,
              -5.4745
            ],
            [
              6.6998,
              -4.7756
            ],
            [
              8.6257,
              -4.7745
            ],
            [
              8.6243,
              -2.2002
            ],
            [
              9.3015,
              -2.1998
            ],
            [
              9.3475,
              3.125
            ],
            [
              9.3525,
              -5.5492
            ],
            [
              6.575,
              -5.5508
            ],
            [
              6.575,
              -5.6758
            ],
            [
              9.4275,
              -5.6742
            ],
            [
              9.4225,
              3.2263
            ]
          ],
          [
            [
              2.775,
              -5.3502
            ],
            [
              3.325,
              -5.3498
            ],
            [
              3.375,
              -5.4498
            ],
            [
              2.825,
              -5.4502
            ],
            [
              2.775,
              -5.3502
            ]
          ],
          [
            [
              3.7999,
              -4.975
            ],
            [
              3.8999,
              -5.025
            ],
            [
              3.9001,
              -5.375
            ],
            [
              3.8001,
              -5.325
            ],
            [
              3.7999,
              -4.975
            ]
          ],
          [
            [
              -2.3001,
              -5.0002
            ],
            [
              -1.7001,
              -4.9998
            ],
            [
              -1.6999,
              -5.4498
            ],
            [
              -2.2999,
              -5.4502
            ],
            [
              -2.3001,
              -5.0002
            ]
          ],
          [
            [
              -8.275,
              -4.125
            ],
            [
              -7.875,
              -4.425
            ],
            [
              -7.975,
              -4.575
            ],
            [
              -8.375,
              -4.275
            ],
            [
              -8.275,
              -4.125
            ]
          ],
          [
            [
              -7.175,
              -3.9001
            ],
            [
              -6.775,
              -3.8999
            ],
            [
              -6.6001,
              -4.025
            ],
            [
              -6.5999,
              -4.325
            ],
            [
              -6.725,
              -4.5499
            ],
            [
              -7.075,
              -4.5501
            ],
            [
              -7.225,
              -4.475
            ],
            [
              -7.325,
              -4.175
            ],
            [
              -7.175,
              -3.9001
            ]
          ],
          [
            [
              -8.425,
              -1.4013
            ],
            [
              -3.875,
              -1.3987
            ],
            [
              -3.825,
              -1.6244
            ],
            [
              -5.925,
              -1.6493
            ],
            [
              -8.375,
              -1.6507
            ],
            [
              -8.425,
              -1.4013
            ]
          ],
          [
            [
              0.825,
              -1.4502
            ],
            [
              0.975,
              -1.3252
            ],
            [
              1.5499,
              -1.3248
            ],
            [
              1.5501,
              -1.6752
            ],
            [
              2.0751,
              -1.6749
            ],
            [
              2.0749,
              -1.375
            ],
            [
              2.1749,
              -1.325
            ],
            [
              2.1751,
              -1.7998
            ],
            [
              1.575,
              -1.8002
            ],
            [
              1.625,
              -1.9752
            ],
            [
              2.175,
              -1.9748
            ],
            [
              2.225,
              -2.0996
            ],
            [
              0.8501,
              -2.1004
            ],
            [
              0.8499,
              -1.7002
            ],
            [
              1.4251,
              -1.6998
            ],
            [
              1.4249,
              -1.4498
            ],
            [
              0.825,
              -1.4502
            ]
          ],
          [
            [
              -0.8001,
              -0.7501
            ],
            [
              -0.325,
              -0.7499
            ],
            [
              0.1246,
              -0.825
            ],
            [
              0.1254,
              -2.1504
            ],
            [
              1.4749,
              -2.1496
            ],
            [
              1.4751,
              -2.525
            ],
            [
              1.575,
              -2.625
            ],
            [
              1.4499,
              -2.675
            ],
            [
              1.4501,
              -3.0749
            ],
            [
              1.175,
              -3.0751
            ],
            [
              1.125,
              -3.175
            ],
            [
              1.025,
              -3.0748
            ],
            [
              0.475,
              -3.0752
            ],
            [
              0.425,
              -3.175
            ],
            [
              0.325,
              -3.0749
            ],
            [
              0.075,
              -3.0751
            ],
            [
              0.025,
              -3.175
            ],
            [
              -0.075,
              -3.0749
            ],
            [
              -0.575,
              -3.0751
            ],
            [
              -0.625,
              -3.175
            ],
            [
              -0.7999,
              -3.125
            ],
            [
              -0.8001,
              -2.675
            ],
            [
              -0.925,
              -2.625
            ],
            [
              -0.8248,
              -2.525
            ],
            [
              -0.8252,
              -1.925
            ],
            [
              -0.925,
              -1.875
            ],
            [
              -0.8248,
              -1.775
            ],
            [
              -0.8252,
              -1.225
            ],
            [
              -0.925,
              -1.125
            ],
            [
              -0.7999,
              -1.075
            ],
            [
              -0.8001,
              -0.7501
            ]
          ],
          [
            [
              2.275,
              -0.6501
            ],
            [
              2.4999,
              -0.6499
            ],
            [
              2.5001,
              -0.9749
            ],
            [
              2.275,
              -0.9751
            ],
            [
              2.175,
              -0.875
            ],
            [
              2.175,
              -0.725
            ],
            [
              2.275,
              -0.6501
            ]
          ],
          [
            [
              8.3497,
              -0.5002
            ],
            [
              9.1497,
              -0.4998
            ],
            [
              9.1503,
              -1.5998
            ],
            [
              8.3503,
              -1.6002
            ],
            [
              8.3497,
              -0.5002
            ]
          ],
          [
            [
              -8.8751,
              1.1499
            ],
            [
              -8.625,
              1.1501
            ],
            [
              -8.525,
              1.075
            ],
            [
              -8.525,
              0.925
            ],
            [
              -8.625,
              0.825
            ],
            [
              -8.775,
              0.825
            ],
            [
              -8.8749,
              0.925
            ],
            [
              -8.8751,
              1.1499
            ]
          ],
          [
            [
              7.1499,
              1.225
            ],
            [
              7.2999,
              1.175
            ],
            [
              7.3001,
              0.675
            ],
            [
              7.1501,
              0.725
            ],
            [
              7.1499,
              1.225
            ]
          ],
          [
            [
              5.7749,
              1.225
            ],
            [
              5.9499,
              1.175
            ],
            [
              5.9501,
              0.675
            ],
            [
              5.7751,
              0.725
            ],
            [
              5.7749,
              1.225
            ]
          ],
          [
            [
              6.725,
              1.875
            ],
            [
              6.825,
              1.925
            ],
            [
              6.875,
              1.775
            ],
            [
              6.775,
              1.725
            ],
            [
              6.725,
              1.875
            ]
          ],
          [
            [
              2.275,
              2.1999
            ],
            [
              2.725,
              2.2001
            ],
            [
              2.775,
              2.0501
            ],
            [
              2.325,
              2.0499
            ],
            [
              2.275,
              2.1999
            ]
          ],
          [
            [
              -3.4503,
              2.9998
            ],
            [
              -2.8003,
              3.0002
            ],
            [
              -2.7997,
              1.9502
            ],
            [
              -3.4497,
              1.9498
            ],
            [
              -3.4503,
              2.9998
            ]
          ],
          [
            [
              -7.125,
              3.0495
            ],
            [
              -5.275,
              3.0505
            ],
            [
              -5.225,
              2.925
            ],
            [
              -5.0755,
              2.875
            ],
            [
              -5.0745,
              1.075
            ],
            [
              -5.275,
              1.0005
            ],
            [
              -7.1995,
              0.9994
            ],
            [
              -7.2005,
              2.875
            ],
            [
              -7.125,
              2.925
            ],
            [
              -7.125,
              3.0495
            ]
          ],
          [
            [
              2.975,
              3.225
            ],
            [
              3.075,
              3.275
            ],
            [
              3.125,
              3.125
            ],
            [
              3.025,
              3.075
            ],
            [
              2.975,
              3.225
            ]
          ],
          [
            [
              2.275,
              3.3999
            ],
            [
              2.725,
              3.4001
            ],
            [
              2.775,
              3.2501
            ],
            [
              2.325,
              3.2499
            ],
            [
              2.275,
              3.3999
            ]
          ],
          [
            [
              3.625,
              3.7499
            ],
            [
              4.075,
              3.7501
            ],
            [
              4.025,
              3.5751
            ],
            [
              3.8248,
              3.5749
            ],
            [
              3.8252,
              2.7749
            ],
            [
              4.0249,
              2.7751
            ],
            [
              4.025,
              2.6001
            ],
            [
              3.575,
              2.5999
            ],
            [
              3.575,
              2.725
            ],
            [
              3.6752,
              2.775
            ],
            [
              3.6748,
              3.575
            ],
            [
              3.575,
              3.625
            ],
            [
              3.625,
              3.7499
            ]
          ],
          [
            [
              0.0499,
              4.375
            ],
            [
              0.1999,
              4.325
            ],
            [
              0.2001,
              3.825
            ],
            [
              0.0501,
              3.875
            ],
            [
              0.0499,
              4.375
            ]
          ],
          [
            [
              -1.2501,
              4.375
            ],
            [
              -1.1001,
              4.325
            ],
            [
              -1.0999,
              3.825
            ],
            [
              -1.2499,
              3.875
            ],
            [
              -1.2501,
              4.375
            ]
          ],
          [
            [
              3.075,
              4.5499
            ],
            [
              3.425,
              4.5501
            ],
            [
              3.6499,
              4.425
            ],
            [
              3.6501,
              4.175
            ],
            [
              3.525,
              3.9001
            ],
            [
              3.175,
              3.8999
            ],
            [
              2.9501,
              4.025
            ],
            [
              2.9499,
              4.325
            ],
            [
              3.075,
              4.5499
            ]
          ]
        ]
      }
    }
  ]
}
